SPACEMOBILE-004         
1 61049U 24163E   26190.57554382 -.00014088  00000+0 -61665-3 0  9992
2 61049  52.9654 205.9666 0008113 207.5207 152.5359 15.20814564101179
CZ-8A R/B               
1 66004U 25231K   26191.32023468 -.00000066  00000+0  35074-4 0  9991
2 66004  50.0052 300.8991 0116510 305.4577  53.5508 14.30161318 38257
SZ-21 MODULE            
1 66515U 25246C   26191.26123960  .00041694  00000+0  23385-3 0  9997
2 66515  41.4699 163.3992 0007141 186.7801 173.2949 15.78454490 37388
SPACEMOBILE-006         
1 67232U 25309A   26191.47248613  .00000213  00000+0  25498-4 0  9990
2 67232  52.9937 224.9712 0010446 200.1439 159.9144 15.18647034 30137
SPACEMOBILE-008         
1 69589U 26139A   26190.99972059  .00000331  00000+0  35582-4 0  9999
2 69589  52.9940 158.9953 0004786  44.1815 315.9557 15.12797717  3438
SPACEMOBILE-009         
1 69590U 26139B   26190.34061313  .00000414  00000+0  40374-4 0  9999
2 69590  52.9929 161.9998 0005008  38.0005 322.1339 15.12690226  3335
SPACEMOBILE-010         
1 69591U 26139C   26190.60738348  .00000292  00000+0  33614-4 0  9991
2 69591  52.9935 160.8181 0004902  29.8087 330.3183 15.12521495  3389
